{
  "norad_id": 63638,
  "name": "STARLINK-33856",
  "history": [
    {
      "epoch": "2026-03-28T11:40:20.169984Z",
      "apogee_km": 483.4828800318255,
      "perigee_km": 482.4958383937892,
      "latitude_deg": -1.4711065551992034e-05,
      "longitude_deg": -102.11315612702145,
      "height_km": 482.74463424994167,
      "semi_major_axis_km": 6861.126359212807,
      "eccentricity": 7.193e-05,
      "inclination_deg": 42.9981,
      "raan_deg": 258.877,
      "arg_perigee_deg": 272.3948,
      "mean_anomaly_deg": 87.6821,
      "mean_motion_rev_day": 15.2759995
    }
  ]
}